NORAD_CAT_ID,OBJECT_NAME,OBJECT_TYPE,EPOCH,MEAN_MOTION,ECCENTRICITY,INCLINATION,RA_OF_ASC_NODE,ARG_OF_PERICENTER,MEAN_ANOMALY,BSTAR,MEAN_MOTION_DOT,MEAN_MOTION_DDOT,TLE_LINE0,TLE_LINE1,TLE_LINE2,SEMIMAJOR_AXIS,PERIOD,APOGEE,PERIGEE,DECAYED
53967.0,STARLINK-4634,PAYLOAD,2022-12-04 14:00:01,15.08837693,0.0002141,53.2139,171.2389,62.2335,347.465,9.9106e-05,1.289e-05,0.0,0 STARLINK-4634,1 53967U 22125D   22338.58334491  .00001289  00000-0  99106-4 0  9996,2 53967  53.2139 171.2389 0002141  62.2335 347.4650 15.08837693  1308,6917.887,95.438,541.234,538.271,0.0
53967.0,STARLINK-4634,PAYLOAD,2022-12-04 22:00:00,15.08820773,0.0002282,53.2136,169.7441,57.3299,3.9656,0.0014668,0.00023121,0.0,0 STARLINK-4634,1 53967U 22125D   22338.91667824  .00023121  00000-0  14668-2 0  9999,2 53967  53.2136 169.7441 0002282  57.3299   3.9656 15.08820773  1307,6917.939,95.439,541.383,538.225,0.0
53967.0,STARLINK-4634,PAYLOAD,2022-12-05 04:00:00,15.0885345,0.0002213,53.2131,168.6208,58.052,281.9243,-0.0022206,-0.0003546999999999,0.0,0 STARLINK-4634,1 53967U 22125D   22339.16667824 -.00035470  00000-0 -22206-2 0  9996,2 53967  53.2131 168.6208 0002213  58.0520 281.9243 15.08853450  9665,6917.839,95.437,541.235,538.173,0.0
53967.0,STARLINK-4634,PAYLOAD,2022-12-05 12:00:00,15.08830306,0.0002149,53.2131,167.1233,64.2019,287.3751,0.0020574,0.00032599,0.0,0 STARLINK-4634,1 53967U 22125D   22339.50001157  .00032599  00000-0  20574-2 0  9998,2 53967  53.2131 167.1233 0002149  64.2019 287.3751 15.08830306  9712,6917.91,95.438,541.262,538.288,0.0
53967.0,STARLINK-4634,PAYLOAD,2022-12-05 14:00:01,15.08848942,0.0002171,53.2131,166.7495,64.0712,20.4584,-0.00043457,-7.2e-05,0.0,0 STARLINK-4634,1 53967U 22125D   22339.58335648 -.00007200  00000-0 -43457-3 0  9990,2 53967  53.2131 166.7495 0002171  64.0712  20.4584 15.08848942  1302,6917.853,95.437,541.22,538.216,0.0
53967.0,STARLINK-4634,PAYLOAD,2022-12-05 15:13:03,15.08831581,0.0002199,53.2151,166.5218,59.4186,300.7023,7.6381e-05,9.27e-06,0.0,0 STARLINK-4634,1 53967U 22125D   22339.63406388  .00000927  00000-0  76381-4 0  9996,2 53967  53.2151 166.5218 0002199  59.4186 300.7023 15.08831581  9736,6917.906,95.438,541.2919999999998,538.25,0.0
53967.0,STARLINK-4634,PAYLOAD,2022-12-05 19:59:12,15.08833346,0.0002222,53.2152,165.6298,59.7201,300.4011,8.681e-05,1.093e-05,0.0,0 STARLINK-4634,1 53967U 22125D   22339.83278341  .00001093  00000-0  86810-4 0  9997,2 53967  53.2152 165.6298 0002222  59.7201 300.4011 15.08833346  9693,6917.901,95.438,541.303,538.229,0.0
53967.0,STARLINK-4634,PAYLOAD,2022-12-06 11:53:03,15.088381,0.0002237,53.2151,162.6559,60.6031,299.5185,9.6223e-05,1.243e-05,0.0,0 STARLINK-4634,1 53967U 22125D   22340.49518201  .00001243  00000-0  96223-4 0  9999,2 53967  53.2151 162.6559 0002237  60.6031 299.5185 15.08838100  9791,6917.886,95.438,541.299,538.2040000000002,0.0
53967.0,STARLINK-4634,PAYLOAD,2022-12-06 23:00:45,15.08843314,0.0002257,53.215,160.5743,61.5451,298.5768,8.7779e-05,1.109e-05,0.0,0 STARLINK-4634,1 53967U 22125D   22340.95885854  .00001109  00000-0  87779-4 0  9998,2 53967  53.2150 160.5743 0002257  61.5451 298.5768 15.08843314  9935,6917.87,95.437,541.297,538.174,0.0
53967.0,STARLINK-4634,PAYLOAD,2022-12-07 19:40:46,15.08841954,0.0002308,53.2153,156.7084,63.8003,296.3227,1.2723e-05,-8.6e-07,0.0,0 STARLINK-4634,1 53967U 22125D   22341.81998125 -.00000086  00000-0  12723-4 0  9991,2 53967  53.2153 156.7084 0002308  63.8003 296.3227 15.08841954  9998,6917.874,95.437,541.336,538.143,0.0
53967.0,STARLINK-4634,PAYLOAD,2022-12-07 22:51:32,15.08838122,0.0002127,53.2163,156.1143,66.5725,293.5490000000001,-2.3315e-05,-6.59e-06,0.0,0 STARLINK-4634,1 53967U 22125D   22341.95246376 -.00000659  00000-0 -23315-4 0  9996,2 53967  53.2163 156.1143 0002127  66.5725 293.5490 15.08838122 10085,6917.886,95.438,541.2230000000002,538.28,0.0
53967.0,STARLINK-4634,PAYLOAD,2022-12-08 05:13:05,15.08839241,0.0002103,53.2166,154.925,65.1728,294.9483,-1.4207e-05,-5.14e-06,0.0,0 STARLINK-4634,1 53967U 22125D   22342.21742221 -.00000514  00000-0 -14207-4 0  9996,2 53967  53.2166 154.9250 0002103  65.1728 294.9483 15.08839241 10052,6917.8830000000025,95.438,541.203,538.293,0.0
53967.0,STARLINK-4634,PAYLOAD,2022-12-08 19:31:32,15.08865812,0.0002217,53.2161,152.2521,54.7775,305.3424,-1.5939e-05,-5.42e-06,0.0,0 STARLINK-4634,1 53967U 22125D   22342.81356493 -.00000542  00000-0 -15939-4 0  9998,2 53967  53.2161 152.2521 0002217  54.7775 305.3424 15.08865812 10146,6917.801,95.436,541.2,538.133,0.0
53967.0,STARLINK-4634,PAYLOAD,2022-12-09 11:25:25,15.08828588,0.0001938,53.2171,149.2782,6.6439,353.4579,-8.4331e-05,-1.63e-05,0.0,0 STARLINK-4634,1 53967U 22125D   22343.47598685 -.00001630  00000-0 -84331-4 0  9993,2 53967  53.2171 149.2782 0001938   6.6439 353.4579 15.08828588 10249,6917.915,95.438,541.121,538.44,0.0
53967.0,STARLINK-4634,PAYLOAD,2022-12-10 11:16:07,15.08922387,0.0001225,53.2163,144.819,348.9677,11.1288,-0.0003182,-5.36e-05,0.0,0 STARLINK-4634,1 53967U 22125D   22344.46952956 -.00005360  00000-0 -31820-3 0  9996,2 53967  53.2163 144.8190 0001225 348.9677  11.1288 15.08922387 10460,6917.629,95.432,540.341,538.646,0.0
53967.0,STARLINK-4634,PAYLOAD,2022-12-10 17:37:44,15.08774959,0.0001012,53.2176,143.6305,308.9194,51.1708,0.001002,0.00015667,0.0,0 STARLINK-4634,1 53967U 22125D   22344.73454805  .00015667  00000-0  10020-2 0  9993,2 53967  53.2176 143.6305 0001012 308.9194  51.1708 15.08774959 10509,6918.079000000002,95.442,540.644,539.244,0.0
53967.0,STARLINK-4634,PAYLOAD,2022-12-10 20:48:31,15.08831566,0.000196,53.2174,143.035,36.6884,323.4242,-0.00012876,-2.336e-05,0.0,0 STARLINK-4634,1 53967U 22125D   22344.86702761 -.00002336  00000-0 -12876-3 0  9997,2 53967  53.2174 143.0350 0001960  36.6884 323.4242 15.08831566 10522,6917.906,95.438,541.127,538.415,0.0
53967.0,STARLINK-4634,PAYLOAD,2022-12-11 09:31:35,15.0879368,0.000164,53.2174,140.6548,0.6538,359.4456,0.00059976,9.258e-05,0.0,0 STARLINK-4634,1 53967U 22125D   22345.39694061  .00009258  00000-0  59976-3 0  9999,2 53967  53.2174 140.6548 0001640   0.6538 359.4456 15.08793680 10537,6918.022,95.44,541.0219999999998,538.752,0.0
53967.0,STARLINK-4634,PAYLOAD,2022-12-11 17:28:31,15.08835248,0.0002085,53.217,139.1646,60.3516,299.7684,4.9047e-05,4.92e-06,0.0,0 STARLINK-4634,1 53967U 22125D   22345.72814166  .00000492  00000-0  49047-4 0  9996,2 53967  53.2170 139.1646 0002085  60.3516 299.7684 15.08835248 10657,6917.895,95.438,541.202,538.318,0.0
53967.0,STARLINK-4634,PAYLOAD,2022-12-12 20:30:04,15.08843775,0.0002065,53.216,134.107,55.9808,304.138,-3.9127e-06,-3.51e-06,0.0,0 STARLINK-4634,1 53967U 22125D   22346.85421787 -.00000351  00000-0 -39127-5 0  9999,2 53967  53.2160 134.1070 0002065  55.9808 304.1380 15.08843775 10821,6917.869000000002,95.437,541.1619999999998,538.305,0.0
53967.0,STARLINK-4634,PAYLOAD,2022-12-13 02:51:36,15.08842013,0.0001994,53.2169,132.9191,63.2706,296.849,7.307e-06,-1.72e-06,0.0,0 STARLINK-4634,1 53967U 22125D   22347.11917806 -.00000172  00000-0  73070-5 0  9996,2 53967  53.2169 132.9191 0001994  63.2706 296.8490 15.08842013 10798,6917.874,95.437,541.119,538.36,0.0
53967.0,STARLINK-4634,PAYLOAD,2022-12-13 18:45:28,15.08834765,0.0002121,53.2169,129.9456,58.369,301.7509,1.9703e-06,-2.57e-06,0.0,0 STARLINK-4634,1 53967U 22125D   22347.78158327 -.00000257  00000-0  19703-5 0  9991,2 53967  53.2169 129.9456 0002121  58.3690 301.7509 15.08834765 10891,6917.896,95.438,541.229,538.294,0.0
53967.0,STARLINK-4634,PAYLOAD,2022-12-14 02:42:24,15.08839749,0.0002047,53.2171,128.4595,59.0783,301.041,1.0821e-05,-1.16e-06,0.0,0 STARLINK-4634,1 53967U 22125D   22348.11277991 -.00000116  00000-0  10821-4 0  9993,2 53967  53.2171 128.4595 0002047  59.0783 301.0410 15.08839749 11016,6917.880999999999,95.438,541.1619999999998,538.33,0.0
53967.0,STARLINK-4634,PAYLOAD,2022-12-14 10:39:19,15.08845202,0.0001955,53.217,126.9725,58.857,301.2613,5.673600000000003e-05,6.15e-06,0.0,0 STARLINK-4634,1 53967U 22125D   22348.44397411  .00000615  00000-0  56736-4 0  9997,2 53967  53.2170 126.9725 0001955  58.8570 301.2613 15.08845202 10995,6917.864000000001,95.437,541.082,538.377,0.0
53967.0,STARLINK-4634,PAYLOAD,2022-12-14 15:25:28,15.08848424,0.0001927,53.2172,126.0804,59.1433,300.9748,7.9355e-05,9.75e-06,0.0,0 STARLINK-4634,1 53967U 22125D   22348.64269046  .00000975  00000-0  79355-4 0  9992,2 53967  53.2172 126.0804 0001927  59.1433 300.9748 15.08848424 11093,6917.855,95.437,541.053,538.387,0.0
53967.0,STARLINK-4634,PAYLOAD,2022-12-14 17:00:52,15.08842215,0.0001845,53.2158,125.7838,55.0688,305.0477,3.3702e-05,2.48e-06,0.0,0 STARLINK-4634,1 53967U 22125D   22348.70893551  .00000248  00000-0  33702-4 0  9992,2 53967  53.2158 125.7838 0001845  55.0688 305.0477 15.08842215 11037,6917.874,95.437,541.015,538.462,0.0
53967.0,STARLINK-4634,PAYLOAD,2022-12-15 02:33:10,15.08840724,0.0001849,53.2158,123.9986,56.5973,303.5196,1.8141e-05,1e-08,0.0,0 STARLINK-4634,1 53967U 22125D   22349.10637611  .00000001  00000-0  18141-4 0  9997,2 53967  53.2158 123.9986 0001849  56.5973 303.5196 15.08840724 11166,6917.878000000002,95.438,541.0219999999998,538.464,0.0
53967.0,STARLINK-4634,PAYLOAD,2022-12-15 08:54:44,15.08825905,0.0002332,53.2154,122.8106,58.9806,301.1415,-9.8114e-05,-1.849e-05,0.0,0 STARLINK-4634,1 53967U 22125D   22349.37135148 -.00001849  00000-0 -98114-4 0  9995,2 53967  53.2154 122.8106 0002332  58.9806 301.1415 15.08825905 11200,6917.9230000000025,95.438,541.4019999999998,538.175,0.0
53967.0,STARLINK-4634,PAYLOAD,2022-12-15 13:40:54,15.08818997,0.0002281,53.2168,121.9165,61.2458,298.8763,-0.00011694,-2.148e-05,0.0,0 STARLINK-4634,1 53967U 22125D   22349.57007908 -.00002148  00000-0 -11694-3 0  9999,2 53967  53.2168 121.9165 0002281  61.2458 298.8763 15.08818997 11169,6917.945,95.439,541.388,538.232,0.0
